1 45201U 20012Z   23001.27507385  .00001477  00000-0  11805-3 0  9997
2 45201  53.0545 209.3973 0001230  86.1772 273.9358 15.06395211159764
1 45201U 20012Z   23001.73950788 -.00000133  00000-0  99952-5 0  9997
2 45201  53.0545 207.3124 0001244  86.9944 273.1187 15.06393223159835
1 45201U 20012Z   23002.00489372  .00000121  00000-0  27010-4 0  9995
2 45201  53.0546 206.1209 0001253  86.2143 273.8989 15.06395502158930
1 45201U 20012Z   23002.27027931  .00000063  00000-0  23096-4 0  9998
2 45201  53.0545 204.9296 0001240  87.5262 272.5869 15.06398528159916
1 45201U 20012Z   23002.66835852 -.00000138  00000-0  96035-5 0  9998
2 45201  53.0544 203.1426 0001257  88.0672 272.0461 15.06400903159970
1 45201U 20012Z   23003.53086301  .00001135  00000-0  95065-4 0  9990
2 45201  53.0549 199.2703 0001164  88.3022 271.8101 15.06399328160100
1 45201U 20012Z   23003.53086301  .00001135  00000-0  95065-4 0  9990
2 45201  53.0549 199.2703 0001164  88.3022 271.8101 15.06399328159164
1 45201U 20012Z   23004.52606040  .00000738  00000-0  68447-4 0  9990
2 45201  53.0550 194.8017 0001432  93.2098 266.9054 15.06404259160255
1 45201U 20012Z   23004.79145275  .00000095  00000-0  25249-4 0  9996
2 45201  53.0550 193.6110 0001709  88.8310 271.2874 15.06399459160298
1 45201U 20012Z   23004.79145275  .00000095  00000-0  25249-4 0  9996
2 45201  53.0550 193.6110 0001709  88.8310 271.2874 15.06399459159353
1 45201U 20012Z   23005.52126686 -.00000368  00000-0 -58100-5 0  9991
2 45201  53.0550 190.3351 0001297  87.4082 272.7055 15.06400160160404
1 45201U 20012Z   23005.78665177 -.00000137  00000-0  97240-5 0  9993
2 45201  53.0548 189.1437 0001361  88.1486 271.9659 15.06402822160442
1 45201U 20012Z   23006.38377733  .00000616  00000-0  60231-4 0  9998
2 45201  53.0549 186.4634 0001311  86.2330 273.8809 15.06392266159596
1 45201U 20012Z   23006.58282433 -.00000251  00000-0  20590-5 0  9993
2 45201  53.0548 185.5696 0001309  86.1261 273.9878 15.06385825160561
1 45201U 20012Z   23006.58282433 -.00000251  00000-0  20590-5 0  9993
2 45201  53.0548 185.5696 0001309  86.1261 273.9878 15.06385825159626
1 45201U 20012Z   23007.17994479  .00000045  00000-0  21927-4 0  9993
2 45201  53.0548 182.8889 0001298  84.9673 275.1464 15.06392118160653
1 45201U 20012Z   23007.37898382  .00000052  00000-0  22380-4 0  9993
2 45201  53.0548 181.9954 0001286  84.9073 275.2063 15.06395427159747
1 45201U 20012Z   23007.57802402  .00000132  00000-0  27778-4 0  9998
2 45201  53.0548 181.1017 0001296  85.5854 274.5283 15.06396126160716
1 45201U 20012Z   23008.17514186  .00000490  00000-0  51797-4 0  9999
2 45201  53.0548 178.4213 0001262  83.9103 276.2030 15.06400559160800
1 45201U 20012Z   23008.57321904  .00002115  00000-0  16082-3 0  9990
2 45201  53.0550 176.6342 0001223  85.4268 274.6860 15.06400206160860
1 45201U 20012Z   23008.57321904  .00002115  00000-0  16082-3 0  9990
2 45201  53.0550 176.6342 0001223  85.4268 274.6860 15.06400206159925
1 45201U 20012Z   23009.17034763  .00000523  00000-0  54022-4 0  9999
2 45201  53.0552 173.9540 0001186  87.0374 273.0751 15.06394523160952
1 45201U 20012Z   23009.70111690  .00000892  00000-0  78769-4 0  9996
2 45201  53.0552 171.5713 0001202  86.2356 273.8770 15.06401251161034
1 45201U 20012Z   23009.70111690  .00000892  00000-0  78769-4 0  9996
2 45201  53.0552 171.5713 0001202  86.2356 273.8770 15.06401251160099
1 45201U 20012Z   23010.43092836 -.00000305  00000-0 -15815-5 0  9993
2 45201  53.0548 168.2956 0001268  84.9162 275.1972 15.06406018161140
1 45201U 20012Z   23010.76267320 -.00000825  00000-0 -36527-4 0  9990
2 45201  53.0559 166.8048 0001221  87.4607 272.6521 15.06389596161197
1 45201U 20012Z   23010.76267320 -.00000825  00000-0 -36527-4 0  9990
2 45201  53.0559 166.8048 0001221  87.4607 272.6521 15.06389596160253
1 45201U 20012Z   23011.16074840 -.00000441  00000-0 -10763-4 0  9996
2 45201  53.0565 165.0175 0000863  95.0862 265.0226 15.06397480160317
1 45201U 20012Z   23011.55882599  .00000143  00000-0  28493-4 0  9993
2 45201  53.0571 163.2325 0000701  78.0169 282.0898 15.06400041161316
1 45201U 20012Z   23011.69151526  .00000809  00000-0  73169-4 0  9996
2 45201  53.0560 162.6353 0001199  83.1780 276.9345 15.06406529160399
1 45201U 20012Z   23011.82420577  .00001223  00000-0  10093-3 0  9993
2 45201  53.0558 162.0390 0001278  86.6117 273.5018 15.06410046161357
1 45201U 20012Z   23012.81945769 -.00002280  00000-0 -13433-3 0  9995
2 45201  53.0567 157.5714 0001137  85.0490 275.0629 15.06363695161506
1 45201U 20012Z   23012.81945769 -.00002280  00000-0 -13433-3 0  9995
2 45201  53.0567 157.5714 0001137  85.0490 275.0629 15.06363695160561
1 45201U 20012Z   23013.08484280 -.00001309  00000-0 -69044-4 0  9992
2 45201  53.0558 156.3825 0001203  87.4235 272.6892 15.06373150160605
1 45201U 20012Z   23013.54926807 -.00001025  00000-0 -49941-4 0  9998
2 45201  53.0553 154.2947 0001201  79.3864 280.7260 15.06386453160674
1 45201U 20012Z   23013.74830023 -.00000355  00000-0 -49204-5 0  9992
2 45201  53.0549 153.4033 0001334  79.5987 280.5152 15.06395394161641
1 45201U 20012Z   23013.74830023 -.00000355  00000-0 -49204-5 0  9992
2 45201  53.0549 153.4033 0001334  79.5987 280.5152 15.06395394160707
1 45201U 20012Z   23014.08001706 -.00006975  00000-0 -44938-3 0  9999
2 45201  53.0541 151.9145 0001263  99.4476 260.6656 15.06435994160755
1 45201U 20012Z   23014.47812165  .00012363  00000-0  84745-3 0  9997
2 45201  53.0533 150.1266 0001176  83.3985 276.7138 15.06398126160816
1 45201U 20012Z   23014.80984635  .00015865  00000-0  10807-2 0  9993
2 45201  53.0526 148.6377 0001261  82.4468 277.6664 15.06429492160864
1 45201U 20012Z   23015.07523464  .00001867  00000-0  14413-3 0  9997
2 45201  53.0524 147.4469 0000930 101.7602 258.3491 15.06413380160906
1 45201U 20012Z   23015.53966160 -.00004727  00000-0 -29871-3 0  9996
2 45201  53.0518 145.3632 0001050 110.9025 249.2076 15.06398172160979
1 45201U 20012Z   23015.60600478  .00000658  00000-0  63057-4 0  9993
2 45201  53.0503 145.0648 0001398 133.4763 226.6342 15.06411191161929
1 45201U 20012Z   23015.73870203  .00027177  00000-0  18357-2 0  9998
2 45201  53.0516 144.4691 0001309  97.6550 262.4588 15.06413300161947
1 45201U 20012Z   23015.73870203  .00027177  00000-0  18357-2 0  9998
2 45201  53.0516 144.4691 0001309  97.6550 262.4588 15.06413300161004
1 45201U 20012Z   23016.07044109  .00023553  00000-0  15944-2 0  9997
2 45201  53.0518 142.9793 0001671  85.9790 274.1390 15.06409029161059
1 45201U 20012Z   23016.60121277  .00015341  00000-0  10463-2 0  9995
2 45201  53.0509 140.5967 0001452  85.8746 274.2409 15.06408670162079
1 45201U 20012Z   23016.66755738  .00016843  00000-0  11463-2 0  9995
2 45201  53.0522 140.2989 0001341  89.5163 270.5980 15.06419155162080
1 45201U 20012Z   23016.66755738  .00016843  00000-0  11463-2 0  9995
2 45201  53.0522 140.2989 0001341  89.5163 270.5980 15.06419155161146
1 45201U 20012Z   23017.06564014  .00012509  00000-0  85706-3 0  9992
2 45201  53.0539 138.5079 0001345 111.2209 248.8924 15.06405529161205
1 45201U 20012Z   23017.59642099  .00023291  00000-0  15775-2 0  9998
2 45201  53.0521 136.1289 0001426  93.6706 266.4446 15.06396584162226
1 45201U 20012Z   23017.59642099  .00023291  00000-0  15775-2 0  9998
2 45201  53.0521 136.1289 0001426  93.6706 266.4446 15.06396584161281
1 45201U 20012Z   23018.32623705  .00019359  00000-0  13146-2 0  9993
2 45201  53.0515 132.8527 0001321  90.9053 269.2087 15.06410365161399
1 45201U 20012Z   23018.59162062  .00021169  00000-0  14349-2 0  9994
2 45201  53.0524 131.6622 0001098  85.5021 274.6094 15.06423574162371
1 45201U 20012Z   23019.25509047  .00007628  00000-0  53030-3 0  9991
2 45201  53.0520 128.6827 0001051  74.0046 286.1059 15.06407868161533
1 45201U 20012Z   23019.58682202  .00009972  00000-0  68718-3 0  9995
2 45201  53.0521 127.1933 0000815  90.9816 269.1266 15.06411557162526
1 45201U 20012Z   23020.44933139  .00002258  00000-0  17043-3 0  9995
2 45201  53.0555 123.3255 0001610 108.8814 251.2350 15.06400903162652
1 45201U 20012Z   23020.44933139  .00002258  00000-0  17043-3 0  9995
2 45201  53.0555 123.3255 0001610 108.8814 251.2350 15.06400903161718
1 45201U 20012Z   23021.44453724  .00000783  00000-0  71473-4 0  9992
2 45201  53.0563 118.8576 0001428 104.1215 255.9933 15.06395779161861
1 45201U 20012Z   23021.57722936  .00002449  00000-0  18321-3 0  9993
2 45201  53.0544 118.2602 0001354  89.6800 270.4344 15.06402806161889
1 45201U 20012Z   23022.50609517  .00000655  00000-0  62854-4 0  9994
2 45201  53.0555 114.0920 0001477  83.1153 277.0004 15.06391845162027
1 45201U 20012Z   23023.50129348  .00006752  00000-0  47165-3 0  9995
2 45201  53.0542 109.6200 0001034  70.4899 289.6202 15.06408356162170
1 45201U 20012Z   23024.16476715  .00003057  00000-0  22404-3 0  9995
2 45201  53.0529 106.6427 0001065  70.4701 289.6403 15.06399362162279
1 45201U 20012Z   23025.49170187  .00008453  00000-0  58554-3 0  9996
2 45201  53.0524 100.6857 0001339  81.4864 278.6276 15.06408372163416
1 45201U 20012Z   23025.49170187  .00008453  00000-0  58554-3 0  9996
2 45201  53.0524 100.6857 0001339  81.4864 278.6276 15.06408372162471
1 45201U 20012Z   23026.15517022  .00003150  00000-0  23024-3 0  9996
2 45201  53.0528  97.7087 0001491  83.4754 276.6405 15.06403857162571
1 45201U 20012Z   23026.42055690  .00003194  00000-0  23319-3 0  9999
2 45201  53.0539  96.5172 0001529 100.3112 259.8049 15.06402881163556
1 45201U 20012Z   23027.48210930 -.00000486  00000-0 -13697-4 0  9998
2 45201  53.0536  91.7510 0001569  89.0692 271.0477 15.06395356163713
1 45201U 20012Z   23027.48210930 -.00000486  00000-0 -13697-4 0  9998
2 45201  53.0536  91.7510 0001569  89.0692 271.0477 15.06395356162778
1 45201U 20012Z   23027.88018833 -.00000516  00000-0 -15757-4 0  9993
2 45201  53.0533  89.9634 0001439  89.1779 270.9375 15.06398869163772
1 45201U 20012Z   23028.54365590  .00001832  00000-0  14185-3 0  9995
2 45201  53.0534  86.9842 0001342  91.2184 268.8959 15.06402543162934
